[{"OBJECT_NAME":"STARLINK-5882","OBJECT_ID":"2023-037Y","EPOCH":"2026-03-09T22:23:02.042592","MEAN_MOTION":14.98335627,"ECCENTRICITY":0.00024936,"INCLINATION":69.9989,"RA_OF_ASC_NODE":263.6765,"ARG_OF_PERICENTER":273.774,"MEAN_ANOMALY":86.3134,"EPHEMERIS_TYPE":0,"CLASSIFICATION_TYPE":"U","NORAD_CAT_ID":55936,"ELEMENT_SET_NO":999,"REV_AT_EPOCH":16451,"BSTAR":-5.538674e-6,"MEAN_MOTION_DOT":-1.59e-6,"MEAN_MOTION_DDOT":0},{"OBJECT_NAME":"DELTA 1 DEB","OBJECT_ID":"1978-026DN","EPOCH":"2026-03-09T22:54:01.614240","MEAN_MOTION":14.93139428,"ECCENTRICITY":0.00397584,"INCLINATION":98.1052,"RA_OF_ASC_NODE":65.3894,"ARG_OF_PERICENTER":90.2844,"MEAN_ANOMALY":324.2277,"EPHEMERIS_TYPE":0,"CLASSIFICATION_TYPE":"U","NORAD_CAT_ID":12269,"ELEMENT_SET_NO":999,"REV_AT_EPOCH":37927,"BSTAR":0.0013156462,"MEAN_MOTION_DOT":0.00013895,"MEAN_MOTION_DDOT":0}]
